SWARM B                 
1 39451U 13067A   26201.65075093  .00002123  00000+0  74743-4 0  9991
2 39451  87.7465 332.1520 0002201  87.6523 272.4979 15.28738882688355
SWARM A                 
1 39452U 13067B   26201.50651515  .00006358  00000+0  10682-3 0  9990
2 39452  87.3301  43.8496 0003325  91.5217 268.6425 15.51521277711412
SWARM C                 
1 39453U 13067C   26201.50642402  .00006457  00000+0  10850-3 0  9993
2 39453  87.3302  42.4304 0003309  91.3780 268.7861 15.51521002711378
BRITE-CA1 (TORONTO)     
1 40020U 14033L   26201.60199635  .00000597  00000+0  97032-4 0  9992
2 40020  97.9778 329.9216 0078889 168.9780 191.3179 14.72729188647137
OCO 2                   
1 40059U 14035A   26201.52859652  .00000189  00000+0  52022-4 0  9996
2 40059  98.2020 142.3156 0001411  80.7203 279.4155 14.57134611640905
BRITE-PL2 (HEWELIUSZ)   
1 40119U 14049B   26201.31086453  .00000947  00000+0  92665-4 0  9995
2 40119  97.9121 313.5727 0013829   5.5650 354.5721 14.94694929646390
MMS 1                   
1 40482U 15011A   26201.66668981 -.00001306  00000+0  00000+0 0  9996
2 40482  72.5076 348.4033 8300962 168.1432 113.7608  0.28343470  1373
MMS 2                   
1 40483U 15011B   26201.66668981 -.00001307  00000+0  00000+0 0  9998
2 40483  72.5116 348.4023 8303778 168.1459 113.7473  0.28343422  1372
MMS 3                   
1 40484U 15011C   26201.66668981 -.00001306  00000+0  00000+0 0  9998
2 40484  72.5113 348.4142 8302144 168.1536 113.7213  0.28343416  1346
MMS 4                   
1 40485U 15011D   26201.66668981 -.00001306  00000+0  00000+0 0  9999
2 40485  72.5073 348.3975 8302143 168.1631 113.7195  0.28343651  1373
ASTROSAT                
1 40930U 15052A   26201.59305826  .00001135  00000+0  56535-4 0  9995
2 40930   5.9967 274.9002 0007706 155.7260 204.3232 14.82556999584791
DAMPE                   
1 41173U 15078A   26201.57053108  .00000657  00000+0  24622-4 0  9994
2 41173  97.4570 207.2047 0010988 325.5891  34.4637 15.30861259589651
PISAT                   
1 41784U 16059B   26201.45192037  .00000513  00000+0  94839-4 0  9992
2 41784  97.8194 200.4781 0030560  98.8032 261.6637 14.69035188524625
HXMT (HUIYAN)           
1 42758U 17034A   26201.61303297  .00002578  00000+0  13204-3 0  9997
2 42758  43.0152 356.8819 0031569 354.8700   5.1821 15.18715999502744
FLYING LAPTOP           
1 42831U 17042G   26201.64533243  .00001804  00000+0  14413-3 0  9991
2 42831  97.4839 355.9251 0019373  15.2320 344.9484 15.01333580491476
ZHANGHENG 1-01 (CSES-1) 
1 43194U 18015C   26201.62873829  .00004166  00000+0  19246-3 0  9993
2 43194  97.6902   7.9557 0016812 146.8553 213.3738 15.20650085469726
SALSAT                  
1 46495U 20068K   26200.97640307  .00004107  00000+0  14329-3 0  9993
2 46495  97.8865 206.0496 0009725 176.0322 184.0997 15.30211220320374
IXPE                    
1 49954U 21121A   26201.58335648  .00006534  00000+0  33059-3 0  9991
2 49954   0.2307  64.7604 0006838 227.4969  21.0449 15.10515454  5787
SMILE                   
1 69123U 26109A   26194.95939329  .00000936  00000+0  00000+0 0  9996
2 69123  70.0512 206.6048 8313707 286.9544   0.1879  0.47500629    65
