OBJECT_NAME,OBJECT_ID,EPOCH,MEAN_MOTION,ECCENTRICITY,INCLINATION,RA_OF_ASC_NODE,ARG_OF_PERICENTER,MEAN_ANOMALY,EPHEMERIS_TYPE,CLASSIFICATION_TYPE,NORAD_CAT_ID,ELEMENT_SET_NO,REV_AT_EPOCH,BSTAR,MEAN_MOTION_DOT,MEAN_MOTION_DDOT
SWARM B,2013-067A,2026-07-20T15:37:04.880352,15.28738882,.00022012,87.7465,332.1520,87.6523,272.4979,0,U,39451,999,68835,.74743235E-4,.2123E-4,0
SWARM A,2013-067B,2026-07-20T12:09:22.908960,15.51521277,.00033256,87.3301,43.8496,91.5217,268.6425,0,U,39452,999,71141,.10682388E-3,.6358E-4,0
SWARM C,2013-067C,2026-07-20T12:09:15.035328,15.51521002,.00033095,87.3302,42.4304,91.3780,268.7861,0,U,39453,999,71137,.10850257E-3,.6457E-4,0
BRITE-CA1 (TORONTO),2014-033L,2026-07-20T14:26:52.484640,14.72729188,.00788895,97.9778,329.9216,168.9780,191.3179,0,U,40020,999,64713,.97032341E-4,.597E-5,0
OCO 2,2014-035A,2026-07-20T12:41:10.739328,14.57134611,.00014111,98.2020,142.3156,80.7203,279.4155,0,U,40059,999,64090,.52021915E-4,.189E-5,0
BRITE-PL2 (HEWELIUSZ),2014-049B,2026-07-20T07:27:38.695392,14.94694929,.00138292,97.9121,313.5727,5.5650,354.5721,0,U,40119,999,64639,.92665287E-4,.947E-5,0
MMS 1,2015-011A,2026-07-20T16:00:01.999584,0.28343470,.83009622,72.5076,348.4033,168.1432,113.7608,0,U,40482,999,137,0,-.1306E-4,0
MMS 2,2015-011B,2026-07-20T16:00:01.999584,0.28343422,.83037781,72.5116,348.4023,168.1459,113.7473,0,U,40483,999,137,0,-.1307E-4,0
MMS 3,2015-011C,2026-07-20T16:00:01.999584,0.28343416,.83021444,72.5113,348.4142,168.1536,113.7213,0,U,40484,999,134,0,-.1306E-4,0
MMS 4,2015-011D,2026-07-20T16:00:01.999584,0.28343651,.83021434,72.5073,348.3975,168.1631,113.7195,0,U,40485,999,137,0,-.1306E-4,0
ASTROSAT,2015-052A,2026-07-20T14:14:00.233664,14.82556999,.00077067,5.9967,274.9002,155.7260,204.3232,0,U,40930,999,58479,.56534696E-4,.1135E-4,0
DAMPE,2015-078A,2026-07-20T13:41:33.885312,15.30861259,.00109884,97.4570,207.2047,325.5891,34.4637,0,U,41173,999,58965,.24621849E-4,.657E-5,0
PISAT,2016-059B,2026-07-20T10:50:45.919968,14.69035188,.00305608,97.8194,200.4781,98.8032,261.6637,0,U,41784,999,52462,.94838652E-4,.513E-5,0
HXMT (HUIYAN),2017-034A,2026-07-20T14:42:46.048608,15.18715999,.00315696,43.0152,356.8819,354.8700,5.1821,0,U,42758,999,50274,.13203826E-3,.2578E-4,0
FLYING LAPTOP,2017-042G,2026-07-20T15:29:16.721952,15.01333580,.00193737,97.4839,355.9251,15.2320,344.9484,0,U,42831,999,49147,.14412821E-3,.1804E-4,0
ZHANGHENG 1-01 (CSES-1),2018-015C,2026-07-20T15:05:22.988256,15.20650085,.00168126,97.6902,7.9557,146.8553,213.3738,0,U,43194,999,46972,.19246212E-3,.4166E-4,0
SALSAT,2020-068K,2026-07-19T23:26:01.225248,15.30211220,.00097251,97.8865,206.0496,176.0322,184.0997,0,U,46495,999,32037,.14328943E-3,.4107E-4,0
IXPE,2021-121A,2026-07-20T14:00:01.999872,15.10515454,.00068387,0.2307,64.7604,227.4969,21.0449,0,U,49954,999,578,.3305853E-3,.6534E-4,0
SMILE,2026-109A,2026-07-13T23:01:31.580256,0.47500629,.83137076,70.0512,206.6048,286.9544,0.1879,0,U,69123,999,6,0,.936E-5,0
